{
  "type": "FeatureCollection",
  "features": [
    {
      "type": "Feature",
      "properties": {
        "norad_id": 31256,
        "name": "FENGYUN 1C DEB",
        "group": "fengyun-1c-debris",
        "lat": 39.368962661892425,
        "lon": 25.269631035973774,
        "alt_km": 697.5028948701956,
        "timestamp": "2025-12-16T13:52:37.805049+00:00",
        "meta_object_name": "FENGYUN 1C DEB",
        "meta_object_id": "1999-025BMN",
        "meta_epoch": "2025-12-15T20:07:36.228000",
        "meta_mean_motion": 14.03322344,
        "meta_eccentricity": 0.03085521,
        "meta_inclination": 98.6805,
        "meta_ra_of_asc_node": 197.3618,
        "meta_arg_of_pericenter": 105.2256,
        "meta_mean_anomaly": 258.3246,
        "meta_ephemeris_type": 0,
        "meta_classification_type": "U",
        "meta_norad_cat_id": 31256,
        "meta_element_set_no": 999,
        "meta_rev_at_epoch": 65025,
        "meta_bstar": 0.0014556977,
        "meta_mean_motion_dot": 3.428e-05,
        "meta_mean_motion_ddot": 0,
        "tle_line1": "1 31256U 99025BMN 25349.83861375  .00003428  00000+0  14557-2 0  9996",
        "tle_line2": "2 31256  98.6805 197.3618 0308552 105.2256 258.3246 14.03322344650258"
      },
      "geometry": {
        "type": "Point",
        "coordinates": [
          25.269631035973774,
          39.368962661892425
        ]
      }
    },
    {
      "type": "Feature",
      "properties": {
        "norad_id": 31258,
        "name": "FENGYUN 1C DEB",
        "group": "fengyun-1c-debris",
        "lat": -27.855103259948482,
        "lon": 144.79673798464663,
        "alt_km": 525.9322751940163,
        "timestamp": "2025-12-16T13:52:37.805060+00:00",
        "meta_object_name": "FENGYUN 1C DEB",
        "meta_object_id": "1999-025BMQ",
        "meta_epoch": "2025-12-15T21:13:52.068288",
        "meta_mean_motion": 15.13759125,
        "meta_eccentricity": 0.0006244,
        "meta_inclination": 98.8464,
        "meta_ra_of_asc_node": 139.2709,
        "meta_arg_of_pericenter": 316.7597,
        "meta_mean_anomaly": 197.488,
        "meta_ephemeris_type": 0,
        "meta_classification_type": "U",
        "meta_norad_cat_id": 31258,
        "meta_element_set_no": 999,
        "meta_rev_at_epoch": 97158,
        "meta_bstar": 0.007030031,
        "meta_mean_motion_dot": 0.00128945,
        "meta_mean_motion_ddot": 0,
        "tle_line1": "1 31258U 99025BMQ 25349.88463042  .00128945  00000+0  70300-2 0  9992",
        "tle_line2": "2 31258  98.8464 139.2709 0006244 316.7597 197.4880 15.13759125971581"
      },
      "geometry": {
        "type": "Point",
        "coordinates": [
          144.79673798464663,
          -27.855103259948482
        ]
      }
    },
    {
      "type": "Feature",
      "properties": {
        "norad_id": 31259,
        "name": "FENGYUN 1C DEB",
        "group": "fengyun-1c-debris",
        "lat": -38.92157274702936,
        "lon": 77.17329685250084,
        "alt_km": 882.1505320741708,
        "timestamp": "2025-12-16T13:52:37.805069+00:00",
        "meta_object_name": "FENGYUN 1C DEB",
        "meta_object_id": "1999-025BMR",
        "meta_epoch": "2025-12-15T16:43:43.842144",
        "meta_mean_motion": 14.15046073,
        "meta_eccentricity": 0.00658801,
        "meta_inclination": 99.0099,
        "meta_ra_of_asc_node": 68.9226,
        "meta_arg_of_pericenter": 187.8685,
        "meta_mean_anomaly": 325.8017,
        "meta_ephemeris_type": 0,
        "meta_classification_type": "U",
        "meta_norad_cat_id": 31259,
        "meta_element_set_no": 999,
        "meta_rev_at_epoch": 95611,
        "meta_bstar": 0.0012674403,
        "meta_mean_motion_dot": 2.462e-05,
        "meta_mean_motion_ddot": 0,
        "tle_line1": "1 31259U 99025BMR 25349.69703521  .00002462  00000+0  12674-2 0  9996",
        "tle_line2": "2 31259  99.0099  68.9226 0065880 187.8685 325.8017 14.15046073956110"
      },
      "geometry": {
        "type": "Point",
        "coordinates": [
          77.17329685250084,
          -38.92157274702936
        ]
      }
    },
    {
      "type": "Feature",
      "properties": {
        "norad_id": 31260,
        "name": "FENGYUN 1C DEB",
        "group": "fengyun-1c-debris",
        "lat": -20.206240065523332,
        "lon": -109.00143045461003,
        "alt_km": 757.7293140093325,
        "timestamp": "2025-12-16T13:52:37.805081+00:00",
        "meta_object_name": "FENGYUN 1C DEB",
        "meta_object_id": "1999-025BMS",
        "meta_epoch": "2025-12-15T16:22:32.055744",
        "meta_mean_motion": 14.36444321,
        "meta_eccentricity": 0.00468516,
        "meta_inclination": 98.9569,
        "meta_ra_of_asc_node": 246.7397,
        "meta_arg_of_pericenter": 283.8984,
        "meta_mean_anomaly": 105.0417,
        "meta_ephemeris_type": 0,
        "meta_classification_type": "U",
        "meta_norad_cat_id": 31260,
        "meta_element_set_no": 999,
        "meta_rev_at_epoch": 97236,
        "meta_bstar": 0.00069682411,
        "meta_mean_motion_dot": 2.021e-05,
        "meta_mean_motion_ddot": 0,
        "tle_line1": "1 31260U 99025BMS 25349.68231546  .00002021  00000+0  69682-3 0  9993",
        "tle_line2": "2 31260  98.9569 246.7397 0046851 283.8984 105.0417 14.36444321972361"
      },
      "geometry": {
        "type": "Point",
        "coordinates": [
          -109.00143045461003,
          -20.206240065523332
        ]
      }
    },
    {
      "type": "Feature",
      "properties": {
        "norad_id": 31261,
        "name": "FENGYUN 1C DEB",
        "group": "fengyun-1c-debris",
        "lat": 44.4659811005372,
        "lon": -64.7757214605588,
        "alt_km": 789.8858647118141,
        "timestamp": "2025-12-16T13:52:37.805092+00:00",
        "meta_object_name": "FENGYUN 1C DEB",
        "meta_object_id": "1999-025BMT",
        "meta_epoch": "2025-12-15T19:19:25.242528",
        "meta_mean_motion": 14.40103977,
        "meta_eccentricity": 0.00499426,
        "meta_inclination": 99.0151,
        "meta_ra_of_asc_node": 303.3755,
        "meta_arg_of_pericenter": 223.6099,
        "meta_mean_anomaly": 136.1136,
        "meta_ephemeris_type": 0,
        "meta_classification_type": "U",
        "meta_norad_cat_id": 31261,
        "meta_element_set_no": 999,
        "meta_rev_at_epoch": 97394,
        "meta_bstar": 0.00067665892,
        "meta_mean_motion_dot": 2.119e-05,
        "meta_mean_motion_ddot": 0,
        "tle_line1": "1 31261U 99025BMT 25349.80515327  .00002119  00000+0  67666-3 0  9998",
        "tle_line2": "2 31261  99.0151 303.3755 0049942 223.6099 136.1136 14.40103977973944"
      },
      "geometry": {
        "type": "Point",
        "coordinates": [
          -64.7757214605588,
          44.4659811005372
        ]
      }
    },
    {
      "type": "Feature",
      "properties": {
        "norad_id": 31262,
        "name": "FENGYUN 1C DEB",
        "group": "fengyun-1c-debris",
        "lat": 56.83093670630659,
        "lon": -91.87443611617397,
        "alt_km": 793.2427912916373,
        "timestamp": "2025-12-16T13:52:37.805102+00:00",
        "meta_object_name": "FENGYUN 1C DEB",
        "meta_object_id": "1999-025BMU",
        "meta_epoch": "2025-12-15T17:41:31.448256",
        "meta_mean_motion": 14.18207889,
        "meta_eccentricity": 0.00550088,
        "meta_inclination": 99.0021,
        "meta_ra_of_asc_node": 73.2367,
        "meta_arg_of_pericenter": 89.6591,
        "meta_mean_anomaly": 60.3721,
        "meta_ephemeris_type": 0,
        "meta_classification_type": "U",
        "meta_norad_cat_id": 31262,
        "meta_element_set_no": 999,
        "meta_rev_at_epoch": 95751,
        "meta_bstar": 0.001154085,
        "meta_mean_motion_dot": 2.364e-05,
        "meta_mean_motion_ddot": 0,
        "tle_line1": "1 31262U 99025BMU 25349.73716954  .00002364  00000+0  11541-2 0  9992",
        "tle_line2": "2 31262  99.0021  73.2367 0055008  89.6591  60.3721 14.18207889957515"
      },
      "geometry": {
        "type": "Point",
        "coordinates": [
          -91.87443611617397,
          56.83093670630659
        ]
      }
    },
    {
      "type": "Feature",
      "properties": {
        "norad_id": 31263,
        "name": "FENGYUN 1C DEB",
        "group": "fengyun-1c-debris",
        "lat": -77.67725194960933,
        "lon": -37.829155931701216,
        "alt_km": 400.6734941414252,
        "timestamp": "2025-12-16T13:52:37.805114+00:00",
        "meta_object_name": "FENGYUN 1C DEB",
        "meta_object_id": "1999-025BMV",
        "meta_epoch": "2025-12-15T18:14:43.887552",
        "meta_mean_motion": 15.61431567,
        "meta_eccentricity": 0.0025266,
        "meta_inclination": 98.9835,
        "meta_ra_of_asc_node": 274.7308,
        "meta_arg_of_pericenter": 121.4521,
        "meta_mean_anomaly": 238.9206,
        "meta_ephemeris_type": 0,
        "meta_classification_type": "U",
        "meta_norad_cat_id": 31263,
        "meta_element_set_no": 999,
        "meta_rev_at_epoch": 97213,
        "meta_bstar": 0.013594266,
        "meta_mean_motion_dot": 0.01315138,
        "meta_mean_motion_ddot": 0,
        "tle_line1": "1 31263U 99025BMV 25349.76023018  .01315138  00000+0  13594-1 0  9994",
        "tle_line2": "2 31263  98.9835 274.7308 0025266 121.4521 238.9206 15.61431567972138"
      },
      "geometry": {
        "type": "Point",
        "coordinates": [
          -37.829155931701216,
          -77.67725194960933
        ]
      }
    }
  ]
}